{"type": "FeatureCollection", "features": [ {"type": "Feature", "properties": {"norad_id": 38552, "name": "METEOSAT-10 (MSG-3)", "group": "weather", "lat": 0.916191550887662, "lon": -130.99487144284197, "alt_km": 35784.33023578801, "timestamp": "2025-12-10T09:57:44.347657+00:00", "meta": {"OBJECT_NAME": "METEOSAT-10 (MSG-3)", "OBJECT_ID": "2012-035B", "EPOCH": "2025-12-09T20:25:24.030912", "MEAN_MOTION": 1.00274082, "ECCENTRICITY": 8.52e-05, "INCLINATION": 4.2224, "RA_OF_ASC_NODE": 61.7294, "ARG_OF_PERICENTER": 241.8219, "MEAN_ANOMALY": 81.7823, "EPHEMERIS_TYPE": 0, "CLASSIFICATION_TYPE": "U", "NORAD_CAT_ID": 38552, "ELEMENT_SET_NO": 999, "REV_AT_EPOCH": 4895, "BSTAR": 0, "MEAN_MOTION_DOT": -4e-08, "MEAN_MOTION_DDOT": 0}, "tle": {"line1": "1 38552U 12035B   25343.85097258 -.00000004  00000+0  00000+0 0  9998", "line2": "2 38552   4.2224  61.7294 0000852 241.8219  81.7823  1.00274082 48959"}}, "geometry": {"type": "Point", "coordinates": [-130.99487144284197, 0.916191550887662]}}, {"type": "Feature", "properties": {"norad_id": 38771, "name": "METOP-B", "group": "weather", "lat": 76.10580269660467, "lon": -3.7258067669105737, "alt_km": 812.6802392321497, "timestamp": "2025-12-10T09:57:44.347669+00:00", "meta": {"OBJECT_NAME": "METOP-B", "OBJECT_ID": "2012-049A", "EPOCH": "2025-12-10T02:50:01.527072", "MEAN_MOTION": 14.21406806, "ECCENTRICITY": 0.0002799, "INCLINATION": 98.6803, "RA_OF_ASC_NODE": 34.1212, "ARG_OF_PERICENTER": 149.8322, "MEAN_ANOMALY": 210.3017, "EPHEMERIS_TYPE": 0, "CLASSIFICATION_TYPE": "U", "NORAD_CAT_ID": 38771, "ELEMENT_SET_NO": 999, "REV_AT_EPOCH": 68640, "BSTAR": 0.00011481, "MEAN_MOTION_DOT": 2.07e-06, "MEAN_MOTION_DDOT": 0}, "tle": {"line1": "1 38771U 12049A   25344.11807323  .00000207  00000+0  11481-3 0  9991", "line2": "2 38771  98.6803  34.1212 0002799 149.8322 210.3017 14.21406806686401"}}, "geometry": {"type": "Point", "coordinates": [-3.7258067669105737, 76.10580269660467]}}, {"type": "Feature", "properties": {"norad_id": 39216, "name": "INSAT-3D", "group": "weather", "lat": -1.4316848655315244, "lon": -1.612508215099035, "alt_km": 35788.92997668704, "timestamp": "2025-12-10T09:57:44.347682+00:00", "meta": {"OBJECT_NAME": "INSAT-3D", "OBJECT_ID": "2013-038B", "EPOCH": "2025-12-09T21:02:13.005024", "MEAN_MOTION": 1.0027109, "ECCENTRICITY": 0.0001623, "INCLINATION": 1.4377, "RA_OF_ASC_NODE": 85.0184, "ARG_OF_PERICENTER": 162.9185, "MEAN_ANOMALY": 276.0233, "EPHEMERIS_TYPE": 0, "CLASSIFICATION_TYPE": "U", "NORAD_CAT_ID": 39216, "ELEMENT_SET_NO": 999, "REV_AT_EPOCH": 4518, "BSTAR": 0, "MEAN_MOTION_DOT": -3.36e-06, "MEAN_MOTION_DDOT": 0}, "tle": {"line1": "1 39216U 13038B   25343.87653941 -.00000336  00000+0  00000+0 0  9997", "line2": "2 39216   1.4377  85.0184 0001623 162.9185 276.0233  1.00271090 45186"}}, "geometry": {"type": "Point", "coordinates": [-1.612508215099035, -1.4316848655315244]}}, {"type": "Feature", "properties": {"norad_id": 39260, "name": "FENGYUN 3C", "group": "weather", "lat": 13.707875183257292, "lon": -39.87650697100249, "alt_km": 851.0023117221808, "timestamp": "2025-12-10T09:57:44.347694+00:00", "meta": {"OBJECT_NAME": "FENGYUN 3C", "OBJECT_ID": "2013-052A", "EPOCH": "2025-12-10T04:48:29.268000", "MEAN_MOTION": 14.15695025, "ECCENTRICITY": 0.0014138, "INCLINATION": 98.476, "RA_OF_ASC_NODE": 322.0037, "ARG_OF_PERICENTER": 203.5602, "MEAN_ANOMALY": 156.4926, "EPHEMERIS_TYPE": 0, "CLASSIFICATION_TYPE": "U", "NORAD_CAT_ID": 39260, "ELEMENT_SET_NO": 999, "REV_AT_EPOCH": 63182, "BSTAR": 0.00012239, "MEAN_MOTION_DOT": 1.99e-06, "MEAN_MOTION_DDOT": 0}, "tle": {"line1": "1 39260U 13052A   25344.20033875  .00000199  00000+0  12239-3 0  9995", "line2": "2 39260  98.4760 322.0037 0014138 203.5602 156.4926 14.15695025631829"}}, "geometry": {"type": "Point", "coordinates": [-39.87650697100249, 13.707875183257292]}}, {"type": "Feature", "properties": {"norad_id": 40069, "name": "METEOR-M 2", "group": "weather", "lat": -51.48937530672283, "lon": -27.09216337461817, "alt_km": 827.5800213223938, "timestamp": "2025-12-10T09:57:44.347704+00:00", "meta": {"OBJECT_NAME": "METEOR-M 2", "OBJECT_ID": "2014-037A", "EPOCH": "2025-12-10T05:08:22.794144", "MEAN_MOTION": 14.21385259, "ECCENTRICITY": 0.0004861, "INCLINATION": 98.4902, "RA_OF_ASC_NODE": 321.8952, "ARG_OF_PERICENTER": 218.3482, "MEAN_ANOMALY": 141.735, "EPHEMERIS_TYPE": 0, "CLASSIFICATION_TYPE": "U", "NORAD_CAT_ID": 40069, "ELEMENT_SET_NO": 999, "REV_AT_EPOCH": 59247, "BSTAR": 0.00023924, "MEAN_MOTION_DOT": 4.8e-06, "MEAN_MOTION_DDOT": 0}, "tle": {"line1": "1 40069U 14037A   25344.21415271  .00000480  00000+0  23924-3 0  9999", "line2": "2 40069  98.4902 321.8952 0004861 218.3482 141.7350 14.21385259592478"}}, "geometry": {"type": "Point", "coordinates": [-27.09216337461817, -51.48937530672283]}}, {"type": "Feature", "properties": {"norad_id": 40267, "name": "HIMAWARI-8", "group": "weather", "lat": 0.02048332055659489, "lon": 9.495371999668656, "alt_km": 35784.780179330955, "timestamp": "2025-12-10T09:57:44.347716+00:00", "meta": {"OBJECT_NAME": "HIMAWARI-8", "OBJECT_ID": "2014-060A", "EPOCH": "2025-12-09T21:05:27.692736", "MEAN_MOTION": 1.00270565, "ECCENTRICITY": 0.0001253, "INCLINATION": 0.0336, "RA_OF_ASC_NODE": 211.9614, "ARG_OF_PERICENTER": 86.5046, "MEAN_ANOMALY": 237.4234, "EPHEMERIS_TYPE": 0, "CLASSIFICATION_TYPE": "U", "NORAD_CAT_ID": 40267, "ELEMENT_SET_NO": 999, "REV_AT_EPOCH": 4086, "BSTAR": 0, "MEAN_MOTION_DOT": -2.73e-06, "MEAN_MOTION_DDOT": 0}, "tle": {"line1": "1 40267U 14060A   25343.87879274 -.00000273  00000+0  00000+0 0  9990", "line2": "2 40267   0.0336 211.9614 0001253  86.5046 237.4234  1.00270565 40866"}}, "geometry": {"type": "Point", "coordinates": [9.495371999668656, 0.02048332055659489]}}, {"type": "Feature", "properties": {"norad_id": 40367, "name": "FENGYUN 2G", "group": "weather", "lat": -4.952505168534084, "lon": -31.61549551859033, "alt_km": 35782.40455897635, "timestamp": "2025-12-10T09:57:44.347729+00:00", "meta": {"OBJECT_NAME": "FENGYUN 2G", "OBJECT_ID": "2014-090A", "EPOCH": "2025-12-09T19:11:01.159872", "MEAN_MOTION": 1.00264939, "ECCENTRICITY": 0.0003084, "INCLINATION": 5.1606, "RA_OF_ASC_NODE": 75.1277, "ARG_OF_PERICENTER": 192.3246, "MEAN_ANOMALY": 198.6902, "EPHEMERIS_TYPE": 0, "CLASSIFICATION_TYPE": "U", "NORAD_CAT_ID": 40367, "ELEMENT_SET_NO": 999, "REV_AT_EPOCH": 4010, "BSTAR": 0, "MEAN_MOTION_DOT": -2.99e-06, "MEAN_MOTION_DDOT": 0}, "tle": {"line1": "1 40367U 14090A   25343.79931898 -.00000299  00000+0  00000+0 0  9994", "line2": "2 40367   5.1606  75.1277 0003084 192.3246 198.6902  1.00264939 40105"}}, "geometry": {"type": "Point", "coordinates": [-31.61549551859033, -4.952505168534084]}}, {"type": "Feature", "properties": {"norad_id": 40732, "name": "METEOSAT-11 (MSG-4)", "group": "weather", "lat": 0.6346681280121272, "lon": -121.82185844302167, "alt_km": 35784.45063370258, "timestamp": "2025-12-10T09:57:44.347741+00:00", "meta": {"OBJECT_NAME": "METEOSAT-11 (MSG-4)", "OBJECT_ID": "2015-034A", "EPOCH": "2025-12-09T22:35:38.584320", "MEAN_MOTION": 1.00266624, "ECCENTRICITY": 9.65e-05, "INCLINATION": 2.7284, "RA_OF_ASC_NODE": 72.0094, "ARG_OF_PERICENTER": 122.8009, "MEAN_ANOMALY": 232.3625, "EPHEMERIS_TYPE": 0, "CLASSIFICATION_TYPE": "U", "NORAD_CAT_ID": 40732, "ELEMENT_SET_NO": 999, "REV_AT_EPOCH": 531, "BSTAR": 0, "MEAN_MOTION_DOT": 6.4e-07, "MEAN_MOTION_DDOT": 0}, "tle": {"line1": "1 40732U 15034A   25343.94141880  .00000064  00000+0  00000+0 0  9999", "line2": "2 40732   2.7284  72.0094 0000965 122.8009 232.3625  1.00266624  5314"}}, "geometry": {"type": "Point", "coordinates": [-121.82185844302167, 0.6346681280121272]}}, {"type": "Feature", "properties": {"norad_id": 41105, "name": "ELEKTRO-L 2", "group": "weather", "lat": 3.8606883715895215, "lon": -145.54681046613655, "alt_km": 35776.831660257885, "timestamp": "2025-12-10T09:57:44.347753+00:00", "meta": {"OBJECT_NAME": "ELEKTRO-L 2", "OBJECT_ID": "2015-074A", "EPOCH": "2025-12-09T01:31:10.511904", "MEAN_MOTION": 1.00271905, "ECCENTRICITY": 0.00038363, "INCLINATION": 6.2161, "RA_OF_ASC_NODE": 72.8685, "ARG_OF_PERICENTER": 198.9202, "MEAN_ANOMALY": 174.5582, "EPHEMERIS_TYPE": 0, "CLASSIFICATION_TYPE": "U", "NORAD_CAT_ID": 41105, "ELEMENT_SET_NO": 999, "REV_AT_EPOCH": 3660, "BSTAR": 0, "MEAN_MOTION_DOT": -1.16e-06, "MEAN_MOTION_DDOT": 0}, "tle": {"line1": "1 41105U 15074A   25343.06331611 -.00000116  00000+0  00000+0 0  9993", "line2": "2 41105   6.2161  72.8685 0003836 198.9202 174.5582  1.00271905 36608"}}, "geometry": {"type": "Point", "coordinates": [-145.54681046613655, 3.8606883715895215]}}, {"type": "Feature", "properties": {"norad_id": 41752, "name": "INSAT-3DR", "group": "weather", "lat": -0.0623409760806491, "lon": -57.08408134758875, "alt_km": 35734.78539311225, "timestamp": "2025-12-10T09:57:44.347766+00:00", "meta": {"OBJECT_NAME": "INSAT-3DR", "OBJECT_ID": "2016-054A", "EPOCH": "2025-12-09T22:15:38.661120", "MEAN_MOTION": 1.00270431, "ECCENTRICITY": 0.0014493, "INCLINATION": 0.0851, "RA_OF_ASC_NODE": 86.5837, "ARG_OF_PERICENTER": 183.7779, "MEAN_ANOMALY": 216.4656, "EPHEMERIS_TYPE": 0, "CLASSIFICATION_TYPE": "U", "NORAD_CAT_ID": 41752, "ELEMENT_SET_NO": 999, "REV_AT_EPOCH": 3392, "BSTAR": 0, "MEAN_MOTION_DOT": -7.4e-07, "MEAN_MOTION_DDOT": 0}, "tle": {"line1": "1 41752U 16054A   25343.92753080 -.00000074  00000+0  00000+0 0  9996", "line2": "2 41752   0.0851  86.5837 0014493 183.7779 216.4656  1.00270431 33920"}}, "geometry": {"type": "Point", "coordinates": [-57.08408134758875, -0.0623409760806491]}}]}